STARLINK-31046
1 58552U 23192X   25355.46417090  .00000342  00000+0  23670-4 0  9993
2 58552  53.1598  66.4455 0001319 102.3818 257.7330 15.30192437114003